#cP2012 10 21  0  0  0.00000000     288 u+U   IGb08 FIT  TUM
## 1711      0.00000000   300.00000000 56221 0.0000000000000
+    3   J01E11E12  0  0  0  0  0  0  0  0  0  0  0  0  0  0
+          0  0  0  0  0  0  0  0  0  0  0  0  0  0  0  0  0
+          0  0  0  0  0  0  0  0  0  0  0  0  0  0  0  0  0
+          0  0  0  0  0  0  0  0  0  0  0  0  0  0  0  0  0
+          0  0  0  0  0  0  0  0  0  0  0  0  0  0  0  0  0
++         3  1  1  0  0  0  0  0  0  0  0  0  0  0  0  0  0
++         0  0  0  0  0  0  0  0  0  0  0  0  0  0  0  0  0
++         0  0  0  0  0  0  0  0  0  0  0  0  0  0  0  0  0
++         0  0  0  0  0  0  0  0  0  0  0  0  0  0  0  0  0
++         0  0  0  0  0  0  0  0  0  0  0  0  0  0  0  0  0
%c E  cc GPS ccc cccc cccc cccc cccc ccccc ccccc ccccc ccccc
%c cc cc ccc ccc cccc cccc cccc cccc ccccc ccccc ccccc ccccc
%f  1.2500000  1.025000000  0.00000000000  0.000000000000000
%f  0.0000000  0.000000000  0.00000000000  0.000000000000000
%i    0    0    0    0      0      0      0      0         0
%i    0    0    0    0      0      0      0      0         0
/* Galileo+QZSS orbits for MGEX based on CONGO+MGEX data    
/* Technische Universitaet Muenchen (TUM)                   
/* Further information: www.iapg.bv.tum.de/mgex             
/* PCV:IGS08_1645 OL/AL:FES2004  NONE     YN ORB:CoN CLK:CoN
*  2012 10 21 16 40  0.00000000
PJ01 -18196.425341  30247.941621 -18447.685618    -12.549026
PE11   6115.662793  18661.147550 -22153.523603   1163.867720
PE12 -13362.777789  12689.949508 -23164.737460    331.554310
*  2012 10 21 16 45  0.00000000
PJ01 -18110.915323  29976.159097 -18866.922848    -12.550697
PE11   5480.250459  18444.337804 -22498.733730   1163.892520
PE12 -14021.232352  12474.680317 -22890.909789    331.579791
*  2012 10 21 16 50  0.00000000
PJ01 -18035.782090  29698.125970 -19275.408259    -12.552371
PE11   4830.647331  18238.971087 -22812.839066   1163.917330
PE12 -14676.043674  12276.862401 -22585.423680    331.605352
*  2012 10 21 16 55  0.00000000
PJ01 -17971.260351  29414.266916 -19672.870188    -12.554073
PE11   4167.958531  18045.830041 -23095.405599   1163.942120
PE12 -15325.856051  12096.485564 -22248.701569    331.630896
*  2012 10 21 17  0  0.00000000
PJ01 -17917.566049  29125.019469 -20059.042539    -12.555756
PE11   3493.333913  17865.636887 -23346.042894   1163.966940
PE12 -15969.320377  11933.464642 -21881.209077    331.656449
*  2012 10 21 17  5  0.00000000
PJ01 -17874.895763  28830.833209 -20433.665088    -12.557417
PE11   2807.964333  17699.050899 -23564.404623   1163.991730
PE12 -16605.098622  11787.639976 -21483.454366    331.681993
*  2012 10 21 17 10  0.00000000
PJ01 -17843.426146  28532.168897 -20796.483806    -12.559126
PE11   2113.077758  17546.666094 -23750.189051   1164.016560
PE12 -17231.868298  11658.778131 -21055.987437    331.707530
*  2012 10 21 17 15  0.00000000
PJ01 -17823.313407  28229.497590 -21147.251157    -12.560763
PE11   1409.935273  17409.009168 -23903.139442   1164.041360
PE12 -17848.326849  11546.572888 -20599.399374    331.733058
*  2012 10 21 17 20  0.00000000
PJ01 -17814.692826  27923.299724 -21485.726410    -12.562436
PE11    699.826948  17286.537653 -24023.044414   1164.066150
PE12 -18453.195996  11450.646491 -20114.321530    331.758600
*  2012 10 21 17 25  0.00000000
PJ01 -17817.678326  27614.064161 -21811.675936    -12.564180
PE11    -15.932383  17179.638331 -24109.738234   1164.090960
PE12 -19045.225987  11370.551144 -19601.424648    331.784152
*  2012 10 21 17 30  0.00000000
PJ01 -17832.362089  27302.287217 -22124.873506    -12.565835
PE11   -736.007430  17088.625896 -24163.101040   1164.115720
PE12 -19623.199751  11305.770748 -19061.417950    331.809662
*  2012 10 21 17 35  0.00000000
PJ01 -17858.814211  26988.471661 -22425.100588    -12.567491
PE11  -1459.046835  17013.741871 -24183.059010   1164.140530
PE12 -20185.936952  11255.722897 -18495.048142    331.835211
*  2012 10 21 17 40  0.00000000
PJ01 -17897.082414  26673.125694 -22712.146621    -12.569230
PE11  -2183.687598  16955.153783 -24169.584460   1164.165330
PE12 -20732.297902  11219.761096 -17903.098399    331.860728
*  2012 10 21 17 45  0.00000000
PJ01 -17947.191817  26356.761905 -22985.809306    -12.570930
PE11  -2908.559573  16912.954598 -24122.695888   1164.190110
PE12 -21261.187355  11197.177202 -17286.387272    331.886251
*  2012 10 21 17 50  0.00000000
PJ01 -18009.144733  26039.896223 -23245.894866    -12.572584
PE11  -3632.289953  16887.162429 -24042.457945   1164.214940
PE12 -21771.558121  11187.204094 -16645.767567    331.911809
*  2012 10 21 17 55  0.00000000
PJ01 -18082.920553  25723.046826 -23492.218315    -12.574339
PE11  -4353.507802  16877.720494 -23928.981346   1164.239740
PE12 -22262.414552  11189.018547 -15982.125161    331.937362
*  2012 10 21 18  0  0.00000000
PJ01 -18168.475650  25406.733077 -23724.603711    -12.576002
PE11  -5070.848543  16884.497354 -23782.422725   1164.264540
PE12 -22732.815815  11201.744299 -15296.377788    331.962872
*  2012 10 21 18  5  0.00000000
PJ01 -18265.743368  25091.474420 -23942.884390    -12.577669
PE11  -5782.958466  16907.287411 -23602.984409   1164.289350
PE12 -23181.879008  11224.455320 -14589.473754    331.988390
*  2012 10 21 18 10  0.00000000
PJ01 -18374.634039  24777.789277 -24146.903215    -12.579426
PE11  -6488.499160  16945.811652 -23390.914154   1164.314160
PE12 -23608.782052  11256.179233 -13862.390650    332.013926
*  2012 10 21 18 15  0.00000000
PJ01 -18495.035074  24466.193960 -24336.512780    -12.581060
PE11  -7186.151915  16999.718685 -23146.504800   1164.338980
PE12 -24012.766391  11295.900935 -13116.133987    332.039481
*  2012 10 21 18 20  0.00000000
PJ01 -18626.811105  24157.201554 -24511.575634    -12.582747
PE11  -7874.622056  17068.586001 -22870.093863   1164.363780
PE12 -24393.139470  11342.566330 -12351.735805    332.065017
*  2012 10 21 18 25  0.00000000
PJ01 -18769.804177  23851.320831 -24671.964466    -12.584522
PE11  -8552.643183  17151.921506 -22562.063084   1164.388580
PE12 -24749.276978  11395.086232 -11570.253258    332.090549
*  2012 10 21 18 30  0.00000000
PJ01 -18923.834001  23549.055144 -24817.562297    -12.586158
PE11  -9218.981327  17249.165291 -22222.837896   1164.413400
PE12 -25080.624873  11452.340379 -10772.767141    332.116087
*  2012 10 21 18 35  0.00000000
PJ01 -19088.698256  23250.901356 -24948.262646    -12.587806
PE11  -9872.438975  17359.691646 -21852.886846   1164.438160
PE12 -25386.701140  11513.181560  -9960.380404    332.141573
*  2012 10 21 18 40  0.00000000
PJ01 -19264.172958  22957.348758 -25063.969686    -12.589574
PE11 -10511.858999  17482.811309 -21452.720947   1164.462970
PE12 -25667.097332  11576.439835  -9134.216620    332.167115
*  2012 10 21 18 45  0.00000000
PJ01 -19450.012866  22668.878018 -25164.598385    -12.591246
PE11 -11136.128410  17617.773934 -21022.892983   1164.487770
PE12 -25921.479831  11640.926848  -8295.418441    332.192655
*  2012 10 21 18 50  0.00000000
PJ01 -19645.951953  22385.960138 -25250.074633    -12.592956
PE11 -11744.181991  17763.770783 -20563.996740   1164.512560
PE12 -26149.590868  11705.440193  -7445.146004    332.218173
*  2012 10 21 18 55  0.00000000
PJ01 -19851.703922  22109.055437 -25320.335350    -12.594685
PE11 -12335.005749  17919.937625 -20076.666199   1164.537370
PE12 -26351.249273  11768.767842  -6584.575334    332.243704
*  2012 10 21 19  0  0.00000000
PJ01 -20066.962778  21838.612562 -25375.328582    -12.596390
PE11 -12907.640184  18085.357826 -19561.574662   1164.562190
PE12 -26526.350964  11829.692602  -5714.896722    332.269237
*  2012 10 21 19  5  0.00000000
PJ01 -20291.403449  21575.067512 -25415.013578    -12.598012
PE11 -13461.183394  18259.065633 -19019.433823   1164.587010
PE12 -26674.869177  11886.996594  -4837.313063    332.294772
*  2012 10 21 19 10  0.00000000
PJ01 -20524.682440  21318.842710 -25439.360849    -12.599789
PE11 -13994.793946  18440.049631 -18450.992796   1164.611790
PE12 -26796.854415  11939.465743  -3953.038209    332.320305
*  2012 10 21 19 15  0.00000000
PJ01 -20766.438558  21070.346087 -25448.352217    -12.601469
PE11 -14507.693578  18627.256363 -17857.037077   1164.636610
PE12 -26892.434145  11985.894248  -3063.295271    332.345853
*  2012 10 21 19 20  0.00000000
PJ01 -21016.293656  20829.970221 -25441.980840    -12.603129
PE11 -14999.169642  18819.594102 -17238.387467   1164.661400
PE12 -26961.812223  12025.089027  -2169.314941    332.371397
*  2012 10 21 19 25  0.00000000
PJ01 -21273.853442  20598.091494 -25420.251221    -12.604889
PE11 -15468.577360  19015.936756 -16595.898941   1164.686210
PE12 -27005.268061  12055.874122  -1272.333774    332.396939
*  2012 10 21 19 30  0.00000000
PJ01 -21538.708300  20375.069305 -25383.179206    -12.606608
PE11 -15915.341805  19215.127905 -15930.459473   1164.711000
PE12 -27023.155524  12077.095047   -373.592495    332.422478
*  2012 10 21 19 35  0.00000000
PJ01 -21810.434175  20161.245314 -25330.791958    -12.608225
PE11 -16338.959673  19415.984941 -15242.988809   1164.735810
PE12 -27015.901584  12087.623064    525.665741    332.448000
*  2012 10 21 19 40  0.00000000
PJ01 -22088.593479  19956.942731 -25263.127917    -12.610002
PE11 -16739.000796  19617.303305 -14534.437197   1164.760640
PE12 -26984.004712  12086.359357   1424.197057    332.473540
*  2012 10 21 19 45  0.00000000
PJ01 -22372.736025  19762.465659 -25180.236743    -12.611703
PE11 -17115.109388  19817.860810 -13805.784088   1164.785420
PE12 -26928.033031  12072.239132   2320.758573    332.499047
*  2012 10 21 19 50  0.00000000
PJ01 -22662.400004  19578.098472 -25082.179242    -12.613370
PE11 -17467.005058  20016.422019 -13058.036771   1164.810230
PE12 -26848.622223  12044.235566   3214.110141    332.524574
*  2012 10 21 19 55  0.00000000
PJ01 -22957.112979  19404.105249 -24969.027279    -12.615122
PE11 -17794.483547  20211.742685 -12292.228996   1164.835020
PE12 -26746.473216  12001.363648   4103.016047    332.550115
EOF
